NORAD_CAT_ID,OBJECT_NAME,OBJECT_TYPE,EPOCH,MEAN_MOTION,ECCENTRICITY,INCLINATION,RA_OF_ASC_NODE,ARG_OF_PERICENTER,MEAN_ANOMALY,BSTAR,MEAN_MOTION_DOT,MEAN_MOTION_DDOT,TLE_LINE0,TLE_LINE1,TLE_LINE2,SEMIMAJOR_AXIS,PERIOD,APOGEE,PERIGEE,DECAYED
53993.0,STARLINK-5121,PAYLOAD,2023-08-31 11:20:30,15.08838828,0.0001006,53.2186,24.3802,85.6113,274.4994,7.5434e-05,9.13e-06,0.0,0 STARLINK-5121,1 53993U 22125AF  23243.47257981  .00000913  00000-0  75434-4 0  9998,2 53993  53.2186  24.3802 0001006  85.6113 274.4994 15.08838828 50539,6917.884,95.438,540.445,539.053,0.0
53993.0,STARLINK-5121,PAYLOAD,2023-09-01 09:35:55,15.08830603,9.39e-05,53.2198,20.2217,25.2766,334.8272,0.00019712,2.85e-05,0.0,0 STARLINK-5121,1 53993U 22125AF  23244.39994303  .00002850  00000-0  19712-3 0  9994,2 53993  53.2198  20.2217 0000939  25.2766 334.8272 15.08830603 50673,6917.909,95.438,540.424,539.125,0.0
53993.0,STARLINK-5121,PAYLOAD,2023-09-01 12:46:40,15.08842862,0.000108,53.2176,19.6275,52.3555,307.7535,0.00014492,2.02e-05,0.0,0 STARLINK-5121,1 53993U 22125AF  23244.53241824  .00002020  00000-0  14492-3 0  9992,2 53993  53.2176  19.6275 0001080  52.3555 307.7535 15.08842862 50615,6917.872,95.437,540.484,538.99,0.0
53993.0,STARLINK-5121,PAYLOAD,2023-09-01 15:57:27,15.08838641,9.29e-05,53.2185,19.0278,90.0169,270.093,0.00011744,1.582e-05,0.0,0 STARLINK-5121,1 53993U 22125AF  23244.66490031  .00001582  00000-0  11744-3 0  9991,2 53993  53.2185  19.0278 0000929  90.0169 270.0930 15.08838641 50636,6917.885,95.438,540.392,539.107,0.0
53993.0,STARLINK-5121,PAYLOAD,2023-09-02 12:37:28,15.0883552,0.0001392,53.2171,15.1593,96.6907,263.4243,9.4363e-05,1.214e-05,0.0,0 STARLINK-5121,1 53993U 22125AF  23245.52602386  .00001214  00000-0  94363-4 0  9996,2 53993  53.2171  15.1593 0001392  96.6907 263.4243 15.08835520 50765,6917.894,95.438,540.722,538.796,0.0
53993.0,STARLINK-5121,PAYLOAD,2023-09-02 15:48:14,15.08841269,0.000126,53.2186,14.5684,78.4225,281.6908,0.00011856,1.6e-05,0.0,0 STARLINK-5121,1 53993U 22125AF  23245.65850084  .00001600  00000-0  11856-3 0  9994,2 53993  53.2186  14.5684 0001260  78.4225 281.6908 15.08841269 50868,6917.877,95.437,540.613,538.87,0.0
53993.0,STARLINK-5121,PAYLOAD,2023-09-03 10:52:52,15.08842602,0.0001161,53.2183,10.9994,87.4052,272.7073,0.00010714,1.418e-05,0.0,0 STARLINK-5121,1 53993U 22125AF  23246.45338013  .00001418  00000-0  10714-3 0  9995,2 53993  53.2183  10.9994 0001161  87.4052 272.7073 15.08842602 50908,6917.872,95.437,540.541,538.934,0.0
53993.0,STARLINK-5121,PAYLOAD,2023-09-04 10:43:39,15.08835318,8.57e-05,53.2192,6.5411,89.3621,270.7469,8.3871e-05,1.047e-05,0.0,0 STARLINK-5121,1 53993U 22125AF  23247.44698648  .00001047  00000-0  83871-4 0  9991,2 53993  53.2192   6.5411 0000857  89.3621 270.7469 15.08835318 51057,6917.895,95.438,540.353,539.167,0.0
53993.0,STARLINK-5121,PAYLOAD,2023-09-04 17:05:12,15.0883717,0.0001171,53.218,5.3499,87.8267,272.2859,2.507e-05,1.11e-06,0.0,0 STARLINK-5121,1 53993U 22125AF  23247.71194780  .00000111  00000-0  25070-4 0  9997,2 53993  53.2180   5.3499 0001171  87.8267 272.2859 15.08837170 51177,6917.889,95.438,540.564,538.944,0.0
53993.0,STARLINK-5121,PAYLOAD,2023-09-05 10:34:26,15.08836846,0.0001214,53.2181,2.0782,89.5521,270.561,4.5863e-05,4.42e-06,0.0,0 STARLINK-5121,1 53993U 22125AF  23248.44058937  .00000442  00000-0  45863-4 0  9990,2 53993  53.2181   2.0782 0001214  89.5521 270.5610 15.08836846 51206,6917.89,95.438,540.595,538.915,0.0
53993.0,STARLINK-5121,PAYLOAD,2023-09-06 00:52:54,15.08841519,0.000124,53.2182,359.402,88.4025,271.7109,0.0001711,2.436e-05,0.0,0 STARLINK-5121,1 53993U 22125AF  23249.03674416  .00002436  00000-0  17110-3 0  9990,2 53993  53.2182 359.4020 0001240  88.4025 271.7109 15.08841519 51374,6917.876,95.437,540.599,538.883,0.0
53993.0,STARLINK-5121,PAYLOAD,2023-09-06 10:25:13,15.08842123,0.000124,53.2184,357.6171,91.5392,268.5742,0.00015965,2.254e-05,0.0,0 STARLINK-5121,1 53993U 22125AF  23249.43418515  .00002254  00000-0  15965-3 0  9994,2 53993  53.2184 357.6171 0001240  91.5392 268.5742 15.08842123 51352,6917.874,95.437,540.597,538.881,0.0
53993.0,STARLINK-5121,PAYLOAD,2023-09-07 10:16:00,15.08841441,0.0001198,53.2182,353.1578,86.6811,273.4318,0.00011978,1.619e-05,0.0,0 STARLINK-5121,1 53993U 22125AF  23250.42778694  .00001619  00000-0  11978-3 0  9996,2 53993  53.2182 353.1578 0001198  86.6811 273.4318 15.08841441 51508,6917.876,95.437,540.57,538.912,0.0
53993.0,STARLINK-5121,PAYLOAD,2023-09-07 16:37:32,15.08847842,0.0001178,53.2183,351.9681,87.0715,273.0412,8.164e-05,1.012e-05,0.0,0 STARLINK-5121,1 53993U 22125AF  23250.69274284  .00001012  00000-0  81640-4 0  9992,2 53993  53.2183 351.9681 0001178  87.0715 273.0412 15.08847842 51542,6917.856,95.437,540.536,538.906,0.0
53993.0,STARLINK-5121,PAYLOAD,2023-09-08 00:34:29,15.08841476,0.0001377,53.2188,350.4777,95.8678,264.2471,1.9862e-05,2.8e-07,0.0,0 STARLINK-5121,1 53993U 22125AF  23251.02394808  .00000028  00000-0  19862-4 0  9998,2 53993  53.2188 350.4777 0001377  95.8678 264.2471 15.08841476 51671,6917.876,95.437,540.693,538.788,0.0
53993.0,STARLINK-5121,PAYLOAD,2023-09-08 13:17:34,15.0884011,0.0001308,53.2185,348.1001,107.8005,252.313,6.3075e-05,7.16e-06,0.0,0 STARLINK-5121,1 53993U 22125AF  23251.55386749  .00000716  00000-0  63075-4 0  9990,2 53993  53.2185 348.1001 0001308 107.8005 252.3130 15.08840110 51678,6917.88,95.438,540.65,538.84,0.0
53993.0,STARLINK-5121,PAYLOAD,2023-09-09 02:00:39,15.0884939,0.000116,53.2182,345.7223,104.7139,255.3981,-4.7201e-05,-1.039e-05,0.0,0 STARLINK-5121,1 53993U 22125AF  23252.08378734 -.00001039  00000-0 -47201-4 0  9998,2 53993  53.2182 345.7223 0001160 104.7139 255.3981 15.08849390 51838,6917.852,95.437,540.519,538.914,0.0
53993.0,STARLINK-5121,PAYLOAD,2023-09-09 13:08:20,15.08847004,0.0001208,53.2181,343.6417,89.0437,271.0693,9.5557e-05,1.234e-05,0.0,0 STARLINK-5121,1 53993U 22125AF  23252.54746377  .00001234  00000-0  95557-4 0  9993,2 53993  53.2181 343.6417 0001208  89.0437 271.0693 15.08847004 51822,6917.859,95.437,540.56,538.888,0.0
53993.0,STARLINK-5121,PAYLOAD,2023-09-09 22:40:40,15.08838332,0.0001218,53.2185,341.8555,86.5899,273.5233,0.00011765,1.585e-05,0.0,0 STARLINK-5121,1 53993U 22125AF  23252.94490837  .00001585  00000-0  11765-3 0  9991,2 53993  53.2185 341.8555 0001218  86.5899 273.5233 15.08838332 51960,6917.885,95.438,540.593,538.908,0.0
53993.0,STARLINK-5121,PAYLOAD,2023-09-10 11:23:45,15.08839466,0.0001222,53.218,339.4791,91.2738,268.8394,0.00011531,1.548e-05,0.0,0 STARLINK-5121,1 53993U 22125AF  23253.47482929  .00001548  00000-0  11531-3 0  9993,2 53993  53.2180 339.4791 0001222  91.2738 268.8394 15.08839466 51964,6917.882,95.438,540.592,538.902,0.0
53993.0,STARLINK-5121,PAYLOAD,2023-09-11 09:39:09,15.08836241,0.0001317,53.2197,335.3222,77.7909,282.3231,3.2894e-05,2.36e-06,0.0,0 STARLINK-5121,1 53993U 22125AF  23254.40219640  .00000236  00000-0  32894-4 0  9994,2 53993  53.2197 335.3222 0001317  77.7909 282.3231 15.08836241 52184,6917.892,95.438,540.668,538.846,0.0
53993.0,STARLINK-5121,PAYLOAD,2023-09-11 12:49:55,15.08838642,0.0001277,53.218,334.7211,81.9608,278.1529,7.7607e-05,9.47e-06,0.0,0 STARLINK-5121,1 53993U 22125AF  23254.53467357  .00000947  00000-0  77607-4 0  9998,2 53993  53.2180 334.7211 0001277  81.9608 278.1529 15.08838642 52129,6917.885,95.438,540.633,538.866,0.0
53993.0,STARLINK-5121,PAYLOAD,2023-09-11 23:57:37,15.08845987,0.0001256,53.2185,332.6413,89.3298,270.7838,-1.9021e-05,-5.91e-06,0.0,0 STARLINK-5121,1 53993U 22125AF  23254.99835041 -.00000591  00000-0 -19021-4 0  9990,2 53993  53.2185 332.6413 0001256  89.3298 270.7838 15.08845987 52276,6917.862,95.437,540.596,538.858,0.0
53993.0,STARLINK-5121,PAYLOAD,2023-09-12 12:40:42,15.0884818,0.0001308,53.2177,330.2623,81.7833,278.3307,0.00020632,2.998e-05,0.0,0 STARLINK-5121,1 53993U 22125AF  23255.52826867  .00002998  00000-0  20632-3 0  9996,2 53993  53.2177 330.2623 0001308  81.7833 278.3307 15.08848180 52276,6917.855,95.437,540.625,538.816,0.0
53993.0,STARLINK-5121,PAYLOAD,2023-09-13 09:20:43,15.08849167,0.0001342,53.2168,326.3962,84.3188,275.7957,0.00029379,4.392e-05,0.0,0 STARLINK-5121,1 53993U 22125AF  23256.38938783  .00004392  00000-0  29379-3 0  9999,2 53993  53.2168 326.3962 0001342  84.3188 275.7957 15.08849167 52489,6917.852,95.437,540.646,538.789,0.0
53993.0,STARLINK-5121,PAYLOAD,2023-09-13 12:31:29,15.08855732,0.0001395,53.2169,325.8016,84.241,275.8741,0.00037374,5.668e-05,0.0,0 STARLINK-5121,1 53993U 22125AF  23256.52186470  .00005668  00000-0  37374-3 0  9994,2 53993  53.2169 325.8016 0001395  84.2410 275.8741 15.08855732 52420,6917.832,95.437,540.662,538.732,0.0
53993.0,STARLINK-5121,PAYLOAD,2023-09-13 23:39:12,15.08825437,0.0001659,53.216,323.7196,80.8998,279.2182,-0.00018928,-3.298e-05,0.0,0 STARLINK-5121,1 53993U 22125AF  23256.98555840 -.00003298  00000-0 -18928-3 0  9998,2 53993  53.2160 323.7196 0001659  80.8998 279.2182 15.08825437 52575,6917.925,95.438,540.938,538.642,0.0
53993.0,STARLINK-5121,PAYLOAD,2023-09-14 10:46:55,15.08804686,0.0001556,53.2165,321.639,70.3402,289.7758,-0.00042535,-7.044e-05,0.0,0 STARLINK-5121,1 53993U 22125AF  23257.44925571 -.00007044  00000-0 -42535-3 0  9996,2 53993  53.2165 321.6390 0001556  70.3402 289.7758 15.08804686 52649,6917.988,95.44,540.93,538.777,0.0
53993.0,STARLINK-5121,PAYLOAD,2023-09-14 23:30:00,15.08826861,0.0001328,53.2161,319.257,81.3085,278.8058,0.0001913,2.757e-05,0.0,0 STARLINK-5121,1 53993U 22125AF  23257.97917551  .00002757  00000-0  19130-3 0  9992,2 53993  53.2161 319.2570 0001328  81.3085 278.8058 15.08826861 52724,6917.921,95.438,540.704,538.867,0.0
53993.0,STARLINK-5121,PAYLOAD,2023-09-15 10:37:42,15.08862446,0.000184,53.2171,317.1787,59.1367,300.9806,0.0019763,0.00031325,0.0,0 STARLINK-5121,1 53993U 22125AF  23258.44285844  .00031325  00000-0  19763-2 0  9992,2 53993  53.2171 317.1787 0001840  59.1367 300.9806 15.08862446 52791,6917.812,95.436,540.95,538.404,0.0
